[{"OBJECT_NAME":"YAOGAN-33 03","OBJECT_ID":"2023-136A","EPOCH":"2026-03-09T22:27:40.864032","MEAN_MOTION":14.58624838,"ECCENTRICITY":0.00086253,"INCLINATION":98.1935,"RA_OF_ASC_NODE":354.6145,"ARG_OF_PERICENTER":129.4155,"MEAN_ANOMALY":230.7809,"EPHEMERIS_TYPE":0,"CLASSIFICATION_TYPE":"U","NORAD_CAT_ID":57797,"ELEMENT_SET_NO":999,"REV_AT_EPOCH":13346,"BSTAR":0.0001651829,"MEAN_MOTION_DOT":7.23e-6,"MEAN_MOTION_DDOT":0},{"OBJECT_NAME":"PICOSAT 3","OBJECT_ID":"2000-004J","EPOCH":"2026-03-09T20:22:58.230048","MEAN_MOTION":14.59546343,"ECCENTRICITY":0.00240506,"INCLINATION":100.1753,"RA_OF_ASC_NODE":159.2529,"ARG_OF_PERICENTER":243.1999,"MEAN_ANOMALY":116.6734,"EPHEMERIS_TYPE":0,"CLASSIFICATION_TYPE":"U","NORAD_CAT_ID":26091,"ELEMENT_SET_NO":999,"REV_AT_EPOCH":37593,"BSTAR":0.00060374355,"MEAN_MOTION_DOT":2.814e-5,"MEAN_MOTION_DDOT":0}]
